NAYIF-1 (EO-88)         
1 42017U 17008BX  23089.75257026  .00131778  00000+0  18012-2 0  9996
2 42017  97.2227 158.9476 0002917 262.5670  97.5254 15.56990112341180
ZHUHAI-1 02 (CAS-4B)    
1 42759U 17034B   23090.16469787  .00014576  00000+0  75696-3 0  9992
2 42759  43.0165 188.9473 0011866 316.4442 119.1526 15.15884703319790
ZHUHAI-1 01 (CAS-4A)    
1 42761U 17034D   23090.25210553  .00012780  00000+0  66398-3 0  9994
2 42761  43.0166 187.0198 0012282 316.3167 138.5701 15.15951784319811
MAX VALIER SAT          
1 42778U 17036P   23089.84839575  .00033649  00000+0  98567-3 0  9998
2 42778  97.1683 126.6963 0009178  38.8005 321.3897 15.35103356320691
RADFXSAT (FOX-1B)       
1 43017U 17073E   23089.85038293  .00013384  00000+0  95176-3 0  9992
2 43017  97.6419 337.2955 0236318 328.1183  30.5908 14.84935704289555
FOX-1D (AO-92)          
1 43137U 18004AC  23089.74740956  .00047561  00000+0  11712-2 0  9991
2 43137  97.3337 168.3941 0006512  73.1215 287.0745 15.40422177290217
DIWATA-2B               
1 43678U 18084H   23090.19196823  .00002647  00000+0  25948-3 0  9991
2 43678  98.0078 232.6632 0010785  62.3375 297.8918 14.93102911240622
ES'HAIL 2               
1 43700U 18090A   23090.51458882  .00000138  00000+0  00000+0 0  9997
2 43700   0.0151 150.4138 0001124 218.8285  30.4132  1.00272981 16153
FOX-1CLIFF (AO-95)      
1 43770U 18099N   23090.14694714  .00009090  00000+0  75414-3 0  9999
2 43770  97.5819 153.8036 0014266  36.6513 323.5683 14.98935197235917
ITASAT 1                
1 43786U 18099AE  23089.86820836  .00008975  00000+0  74827-3 0  9997
2 43786  97.5858 154.5632 0015168  34.4731 325.7473 14.98740247235918
JY1SAT (JO-97)          
1 43803U 18099AX  23089.88538874  .00009905  00000+0  80263-3 0  9992
2 43803  97.5801 154.5053 0014194  23.7223 336.4652 14.99821275235952
UWE-4                   
1 43880U 18111E   23090.19751264  .00012049  00000+0  94143-3 0  9993
2 43880  97.6450 356.6155 0018322  78.4650 281.8630 15.01114855230669
NEXUS (FO-99)           
1 43937U 19003F   23089.86013334  .00069283  00000+0  14759-2 0  9994
2 43937  97.0985 118.4509 0015335 193.0233 167.0623 15.44566256233920
JAISAT-1                
1 44419U 19038F   23089.66231933  .00034550  00000+0  13284-2 0  9994
2 44419  97.6704  69.0219 0014195 207.5920 152.4565 15.26239512206540
DUCHIFAT-3              
1 44854U 19089C   23089.70702838  .00012766  00000+0  88976-3 0  9991
2 44854  36.9643 199.8482 0009104  34.6884  79.4646 15.04820704181003
CAS-6 (TIANQIN 1)       
1 44881U 19093C   23090.20207015  .00001943  00000+0  24921-3 0  9995
2 44881  97.8643 169.9809 0014317 337.6974  22.3617 14.82325911177249
RS-44 & BREEZE-KM R/B   
1 44909U 19096E   23089.80642801  .00000034  00000+0  91990-4 0  9990
2 44909  82.5239  40.0188 0217824  10.5410 350.0149 12.79719616152136
HUSKYSAT-1 (HO-107)     
1 45119U 19071J   23089.29697158  .00755221  25755-3  18038-2 0  9998
2 45119  51.6220  69.3681 0008454 107.0071 253.1864 15.95947615177880
BY70-2                  
1 45857U 20042B   23090.18776773  .00028291  00000+0  31379-2 0  9993
2 45857  97.9286 169.9966 0009068 250.7068 109.3567 14.87176434147939
SALSAT                  
1 46495U 20068K   23089.78891776  .00009834  00000+0  66094-3 0  9990
2 46495  97.7624  37.0466 0016911  32.3775 327.8486 15.06866402137261
BY70-3                  
1 46839U 20079N   23090.21036265  .00947661  43183-3  19692-2 0  9991
2 46839  97.1447 167.9081 0008027 262.8578 181.5550 15.99143306134779
RADFXSAT-2 (AO-109)     
1 47311U 21002C   23090.17888692  .00040914  00000+0  11948-2 0  9996
2 47311  60.6839 357.5130 0029596 133.7018 226.6534 15.34626160122308
UVSQ-SAT                
1 47438U 21006AB  23090.11793710  .00026787  00000+0  11781-2 0  9997
2 47438  97.3944 148.4517 0009686   4.4561 355.6760 15.21810401120764
DIY-1 (ARDUIQUBE)       
1 47963U 21022AH  23090.19730966  .00156085  00000+0  41671-2 0  9996
2 47963  97.5057 355.8593 0008827 187.1157 172.9963 15.37452859110522
XW-3 (CAS-9)            
1 50466U 21131B   23090.21623340  .00001577  00000+0  52735-3 0  9998
2 50466  98.5536 172.0068 0004546  30.5755 329.5697 14.38792980 66146
TEVEL-3                 
1 50988U 22002E   23090.15983742  .00025735  00000+0  11325-2 0  9994
2 50988  97.4415 157.8097 0010079 146.2293 242.4037 15.21795942 66888
TEVEL-8                 
1 50989U 22002F   23090.17478124  .00025563  00000+0  11271-2 0  9999
2 50989  97.4422 157.8734 0009711 145.2642 240.1124 15.21735209 66885
TEVEL-5                 
1 50998U 22002Q   23090.14386065  .00026550  00000+0  11442-2 0  9995
2 50998  97.4404 158.0919 0011245 141.0529 249.4551 15.22491069 66909
TEVEL-6                 
1 50999U 22002R   23090.14248013  .00026467  00000+0  11405-2 0  9992
2 50999  97.4401 158.0879 0011064 140.5506 250.0162 15.22495360 66904
TEVEL-1                 
1 51013U 22002AF  23090.16725427  .00025474  00000+0  11224-2 0  9997
2 51013  97.4408 157.7708 0009691 145.5205 241.8507 15.21757797 66882
TEVEL-7                 
1 51062U 22002CG  23090.17617874  .00025659  00000+0  11309-2 0  9997
2 51062  97.4428 157.8522 0009790 144.2471 239.3980 15.21745689 66888
TEVEL-4                 
1 51063U 22002CH  23090.17990948  .00025390  00000+0  11204-2 0  9990
2 51063  97.4426 157.8433 0009876 144.6519 238.8183 15.21706621 66882
TEVEL-2                 
1 51069U 22002CP  23090.16161287  .00025735  00000+0  11326-2 0  9999
2 51069  97.4408 157.7857 0009656 146.2304 241.8662 15.21796637 66885
GREENCUBE               
1 53106U 22080B   23088.05176028 -.00000003  00000+0  00000+0 0  9999
2 53106  70.1795 347.5677 0008286 204.3079 155.7190  6.42557135 16603
RS29S (SXC3-2110 CYCLO*)
1 53373U 22096D   23090.53526816  .00037314  00000+0  11374-2 0  9995
2 53373  97.4198 356.1952 0003839  71.0422  52.3907 15.33858581 35765
RS32S (SXC3-212 MONITO*)
1 53374U 22096E   23090.53694766  .00034568  00000+0  10651-2 0  9991
2 53374  97.4179 356.1735 0004009  67.4956  56.0731 15.33531331 35762
RS34S (SXC3-218 KUZBAS*)
1 53375U 22096F   23090.21973659  .00027843  00000+0  89608-3 0  9995
2 53375  97.4206 355.7136 0003686  74.2318  76.8439 15.32186224 35707
RS23S (SXC3-21 UTMN)    
1 53376U 22096G   23090.13390183  .00030272  00000+0  96139-3 0  9999
2 53376  97.4201 355.6678 0003714  72.8720  66.8293 15.32595261 35696
RS28S (SXC3-214 MIET-A*)
1 53377U 22096H   23090.47067781  .00027928  00000+0  90075-3 0  9999
2 53377  97.4199 355.9756 0003573  68.9717  40.9661 15.32116641 35747
RS26S (KAI-1)           
1 53378U 22096J   23090.51625060  .00023356  00000+0  77580-3 0  9992
2 53378  97.4210 355.9246 0003504  67.2673  58.7365 15.31204900 35746
RS19S (SXC3-219 ISOI)   
1 53381U 22096M   23090.52502433  .00029819  00000+0  93945-3 0  9998
2 53381  97.4192 356.2045 0003858  18.0571 107.4978 15.32853861 35764
RS21S (CUBESX-HSE-2)    
1 53383U 22096P   23090.51368376  .00030217  00000+0  94677-3 0  9992
2 53383  97.4198 356.2268 0004138  15.5652 109.9608 15.33025349 35763
RS30S (SXC3-217 SIREN)  
1 53384U 22096Q   23090.28701775  .00025472  00000+0  82077-3 0  9999
2 53384  97.4210 355.9186 0004284  15.3406 102.4908 15.32163061 35721
RS20S (GEOSCAN-EDELVEIS)
1 53385U 22096R   23090.44408358  .00039468  00000+0  11515-2 0  9997
2 53385  97.4195 356.4560 0003948  16.9170 101.0597 15.35230266 35800
RS33S (SXC3-215 VIZARD) 
1 53386U 22096S   23090.18944956  .00048723  00000+0  13269-2 0  9990
2 53386  97.4187 356.5079 0004880  12.1906 151.0842 15.37330659 35772
CAS-5A (FO-118)         
1 54684U 22167C   23090.19222106  .00018175  00000+0  10612-2 0  9995
2 54684  97.5486 228.4745 0013950 240.5491 226.2360 15.11894970 16882
